{
  "type": "FeatureCollection",
  "features": [
    {
      "type": "Feature",
      "properties": {
        "norad_id": 24876,
        "name": "GPS BIIR-2  (PRN 13)",
        "group": "gnss",
        "lat": 2.693734198363246,
        "lon": -75.87622991193021,
        "alt_km": 20307.705730277106,
        "timestamp": "2025-12-10T11:33:53.627564+00:00",
        "meta_object_name": "GPS BIIR-2  (PRN 13)",
        "meta_object_id": "1997-035A",
        "meta_epoch": "2025-12-09T17:47:19.153824",
        "meta_mean_motion": 2.00563565,
        "meta_eccentricity": 0.0096748,
        "meta_inclination": 55.8939,
        "meta_ra_of_asc_node": 105.9862,
        "meta_arg_of_pericenter": 57.0132,
        "meta_mean_anomaly": 303.8899,
        "meta_ephemeris_type": 0,
        "meta_classification_type": "U",
        "meta_norad_cat_id": 24876,
        "meta_element_set_no": 999,
        "meta_rev_at_epoch": 20815,
        "meta_bstar": 0,
        "meta_mean_motion_dot": 2.2e-07,
        "meta_mean_motion_ddot": 0,
        "tle_line1": "1 24876U 97035A   25343.74119391  .00000022  00000+0  00000+0 0  9995",
        "tle_line2": "2 24876  55.8939 105.9862 0096748  57.0132 303.8899  2.00563565208159"
      },
      "geometry": {
        "type": "Point",
        "coordinates": [
          -75.87622991193021,
          2.693734198363246
        ]
      }
    },
    {
      "type": "Feature",
      "properties": {
        "norad_id": 26360,
        "name": "GPS BIIR-4  (PRN 20)",
        "group": "gnss",
        "lat": -54.98069489335349,
        "lon": -66.90706727694017,
        "alt_km": 20094.739726128715,
        "timestamp": "2025-12-10T11:33:53.627607+00:00",
        "meta_object_name": "GPS BIIR-4  (PRN 20)",
        "meta_object_id": "2000-025A",
        "meta_epoch": "2025-12-10T02:56:33.389088",
        "meta_mean_motion": 2.00567859,
        "meta_eccentricity": 0.0038854,
        "meta_inclination": 55.0436,
        "meta_ra_of_asc_node": 26.9437,
        "meta_arg_of_pericenter": 241.7395,
        "meta_mean_anomaly": 126.4699,
        "meta_ephemeris_type": 0,
        "meta_classification_type": "U",
        "meta_norad_cat_id": 26360,
        "meta_element_set_no": 999,
        "meta_rev_at_epoch": 18748,
        "meta_bstar": 0,
        "meta_mean_motion_dot": -9.6e-07,
        "meta_mean_motion_ddot": 0,
        "tle_line1": "1 26360U 00025A   25344.12260867 -.00000096  00000+0  00000+0 0  9998",
        "tle_line2": "2 26360  55.0436  26.9437 0038854 241.7395 126.4699  2.00567859187489"
      },
      "geometry": {
        "type": "Point",
        "coordinates": [
          -66.90706727694017,
          -54.98069489335349
        ]
      }
    },
    {
      "type": "Feature",
      "properties": {
        "norad_id": 26407,
        "name": "GPS BIIR-5  (PRN 22)",
        "group": "gnss",
        "lat": 51.2674055658624,
        "lon": -18.551070094047052,
        "alt_km": 20499.86216223294,
        "timestamp": "2025-12-10T11:33:53.627625+00:00",
        "meta_object_name": "GPS BIIR-5  (PRN 22)",
        "meta_object_id": "2000-040A",
        "meta_epoch": "2025-12-09T20:17:06.583776",
        "meta_mean_motion": 2.00567874,
        "meta_eccentricity": 0.0126172,
        "meta_inclination": 54.8914,
        "meta_ra_of_asc_node": 222.6841,
        "meta_arg_of_pericenter": 301.7549,
        "meta_mean_anomaly": 65.7518,
        "meta_ephemeris_type": 0,
        "meta_classification_type": "U",
        "meta_norad_cat_id": 26407,
        "meta_element_set_no": 999,
        "meta_rev_at_epoch": 18615,
        "meta_bstar": 0,
        "meta_mean_motion_dot": 2e-08,
        "meta_mean_motion_ddot": 0,
        "tle_line1": "1 26407U 00040A   25343.84521509  .00000002  00000+0  00000+0 0  9994",
        "tle_line2": "2 26407  54.8914 222.6841 0126172 301.7549  65.7518  2.00567874186157"
      },
      "geometry": {
        "type": "Point",
        "coordinates": [
          -18.551070094047052,
          51.2674055658624
        ]
      }
    },
    {
      "type": "Feature",
      "properties": {
        "norad_id": 27663,
        "name": "GPS BIIR-8  (PRN 16)",
        "group": "gnss",
        "lat": -46.66313206651068,
        "lon": 90.56211362736232,
        "alt_km": 20571.16531835841,
        "timestamp": "2025-12-10T11:33:53.627639+00:00",
        "meta_object_name": "GPS BIIR-8  (PRN 16)",
        "meta_object_id": "2003-005A",
        "meta_epoch": "2025-12-09T15:52:30.360000",
        "meta_mean_motion": 2.00571029,
        "meta_eccentricity": 0.0147333,
        "meta_inclination": 54.924,
        "meta_ra_of_asc_node": 222.5008,
        "meta_arg_of_pericenter": 51.758,
        "meta_mean_anomaly": 318.9168,
        "meta_ephemeris_type": 0,
        "meta_classification_type": "U",
        "meta_norad_cat_id": 27663,
        "meta_element_set_no": 999,
        "meta_rev_at_epoch": 16751,
        "meta_bstar": 0,
        "meta_mean_motion_dot": 3e-08,
        "meta_mean_motion_ddot": 0,
        "tle_line1": "1 27663U 03005A   25343.66146250  .00000003  00000+0  00000+0 0  9990",
        "tle_line2": "2 27663  54.9240 222.5008 0147333  51.7580 318.9168  2.00571029167518"
      },
      "geometry": {
        "type": "Point",
        "coordinates": [
          90.56211362736232,
          -46.66313206651068
        ]
      }
    },
    {
      "type": "Feature",
      "properties": {
        "norad_id": 28190,
        "name": "GPS BIIR-11 (PRN 19)",
        "group": "gnss",
        "lat": 32.428267739146264,
        "lon": -50.293554946911065,
        "alt_km": 20348.38393816252,
        "timestamp": "2025-12-10T11:33:53.627653+00:00",
        "meta_object_name": "GPS BIIR-11 (PRN 19)",
        "meta_object_id": "2004-009A",
        "meta_epoch": "2025-12-09T02:41:41.936352",
        "meta_mean_motion": 2.00560834,
        "meta_eccentricity": 0.01083049,
        "meta_inclination": 54.989,
        "meta_ra_of_asc_node": 283.3651,
        "meta_arg_of_pericenter": 167.5856,
        "meta_mean_anomaly": 325.415,
        "meta_ephemeris_type": 0,
        "meta_classification_type": "U",
        "meta_norad_cat_id": 28190,
        "meta_element_set_no": 999,
        "meta_rev_at_epoch": 15913,
        "meta_bstar": 0,
        "meta_mean_motion_dot": -5.3e-07,
        "meta_mean_motion_ddot": 0,
        "tle_line1": "1 28190U 04009A   25343.11229093 -.00000053  00000+0  00000+0 0  9994",
        "tle_line2": "2 28190  54.9890 283.3651 0108304 167.5856 325.4150  2.00560834159136"
      },
      "geometry": {
        "type": "Point",
        "coordinates": [
          -50.293554946911065,
          32.428267739146264
        ]
      }
    },
    {
      "type": "Feature",
      "properties": {
        "norad_id": 28474,
        "name": "GPS BIIR-13 (PRN 02)",
        "group": "gnss",
        "lat": 53.21776484205286,
        "lon": 84.26721927511107,
        "alt_km": 20581.13949478981,
        "timestamp": "2025-12-10T11:33:53.627666+00:00",
        "meta_object_name": "GPS BIIR-13 (PRN 02)",
        "meta_object_id": "2004-045A",
        "meta_epoch": "2025-12-09T20:12:55.228032",
        "meta_mean_motion": 2.00569305,
        "meta_eccentricity": 0.0170709,
        "meta_inclination": 55.2421,
        "meta_ra_of_asc_node": 332.5223,
        "meta_arg_of_pericenter": 309.1205,
        "meta_mean_anomaly": 51.0041,
        "meta_ephemeris_type": 0,
        "meta_classification_type": "U",
        "meta_norad_cat_id": 28474,
        "meta_element_set_no": 999,
        "meta_rev_at_epoch": 15463,
        "meta_bstar": 0,
        "meta_mean_motion_dot": -8.4e-07,
        "meta_mean_motion_ddot": 0,
        "tle_line1": "1 28474U 04045A   25343.84230588 -.00000084  00000+0  00000+0 0  9994",
        "tle_line2": "2 28474  55.2421 332.5223 0170709 309.1205  51.0041  2.00569305154630"
      },
      "geometry": {
        "type": "Point",
        "coordinates": [
          84.26721927511107,
          53.21776484205286
        ]
      }
    },
    {
      "type": "Feature",
      "properties": {
        "norad_id": 28874,
        "name": "GPS BIIRM-1 (PRN 17)",
        "group": "gnss",
        "lat": 46.32523081633772,
        "lon": -32.1660528589403,
        "alt_km": 20390.090752168573,
        "timestamp": "2025-12-10T11:33:53.627678+00:00",
        "meta_object_name": "GPS BIIRM-1 (PRN 17)",
        "meta_object_id": "2005-038A",
        "meta_epoch": "2025-12-09T01:52:55.801632",
        "meta_mean_motion": 2.0057855,
        "meta_eccentricity": 0.01317498,
        "meta_inclination": 55.0352,
        "meta_ra_of_asc_node": 280.8483,
        "meta_arg_of_pericenter": 293.4065,
        "meta_mean_anomaly": 193.8993,
        "meta_ephemeris_type": 0,
        "meta_classification_type": "U",
        "meta_norad_cat_id": 28874,
        "meta_element_set_no": 999,
        "meta_rev_at_epoch": 14802,
        "meta_bstar": 0,
        "meta_mean_motion_dot": -5e-07,
        "meta_mean_motion_ddot": 0,
        "tle_line1": "1 28874U 05038A   25343.07842363 -.00000050  00000+0  00000+0 0  9999",
        "tle_line2": "2 28874  55.0352 280.8483 0131749 293.4065 193.8993  2.00578550148027"
      },
      "geometry": {
        "type": "Point",
        "coordinates": [
          -32.1660528589403,
          46.32523081633772
        ]
      }
    }
  ]
}